{"type": "FeatureCollection", "features": [ {"type": "Feature", "properties": {"norad_id": 66619, "name": "STARLINK-35951", "group": "last-30-days", "lat": 7.7694720334319705, "lon": 8.708083897037406, "alt_km": 397.21669806627324, "timestamp": "2025-12-11T05:00:25.075927+00:00", "meta": {"OBJECT_NAME": "STARLINK-35951", "OBJECT_ID": "2025-271C", "EPOCH": "2025-12-10T22:00:03.000096", "MEAN_MOTION": 15.57893985, "ECCENTRICITY": 8.496e-05, "INCLINATION": 53.1603, "RA_OF_ASC_NODE": 195.9921, "ARG_OF_PERICENTER": 93.1103, "MEAN_ANOMALY": 239.5897, "EPHEMERIS_TYPE": 0, "CLASSIFICATION_TYPE": "U", "NORAD_CAT_ID": 66619, "ELEMENT_SET_NO": 999, "REV_AT_EPOCH": 395, "BSTAR": -0.03045195, "MEAN_MOTION_DOT": -0.02065105, "MEAN_MOTION_DDOT": 0}, "tle": {"line1": "1 66619U 25271C   25344.91670139 -.02065105  00000+0 -30452-1 0  9994", "line2": "2 66619  53.1603 195.9921 0000849  93.1103 239.5897 15.57893985  3952"}}, "geometry": {"type": "Point", "coordinates": [8.708083897037406, 7.7694720334319705]}}, {"type": "Feature", "properties": {"norad_id": 66620, "name": "STARLINK-35936", "group": "last-30-days", "lat": 12.331313041271978, "lon": 5.159307136171512, "alt_km": 396.5575946305098, "timestamp": "2025-12-11T05:00:25.075937+00:00", "meta": {"OBJECT_NAME": "STARLINK-35936", "OBJECT_ID": "2025-271D", "EPOCH": "2025-12-10T22:00:03.000096", "MEAN_MOTION": 15.57889245, "ECCENTRICITY": 8.385e-05, "INCLINATION": 53.1602, "RA_OF_ASC_NODE": 196.0052, "ARG_OF_PERICENTER": 86.4123, "MEAN_ANOMALY": 240.5397, "EPHEMERIS_TYPE": 0, "CLASSIFICATION_TYPE": "U", "NORAD_CAT_ID": 66620, "ELEMENT_SET_NO": 999, "REV_AT_EPOCH": 395, "BSTAR": -0.030347656, "MEAN_MOTION_DOT": -0.02058453, "MEAN_MOTION_DDOT": 0}, "tle": {"line1": "1 66620U 25271D   25344.91670139 -.02058453  00000+0 -30348-1 0  9998", "line2": "2 66620  53.1602 196.0052 0000838  86.4123 240.5397 15.57889245  3956"}}, "geometry": {"type": "Point", "coordinates": [5.159307136171512, 12.331313041271978]}}, {"type": "Feature", "properties": {"norad_id": 66621, "name": "STARLINK-35847", "group": "last-30-days", "lat": -30.5579316509003, "lon": 40.7485472174533, "alt_km": 401.97680530266734, "timestamp": "2025-12-11T05:00:25.075946+00:00", "meta": {"OBJECT_NAME": "STARLINK-35847", "OBJECT_ID": "2025-271E", "EPOCH": "2025-12-10T22:00:03.000096", "MEAN_MOTION": 15.57888228, "ECCENTRICITY": 0.00010877, "INCLINATION": 53.1601, "RA_OF_ASC_NODE": 195.8889, "ARG_OF_PERICENTER": 85.4843, "MEAN_ANOMALY": 296.4132, "EPHEMERIS_TYPE": 0, "CLASSIFICATION_TYPE": "U", "NORAD_CAT_ID": 66621, "ELEMENT_SET_NO": 999, "REV_AT_EPOCH": 395, "BSTAR": -0.030333521, "MEAN_MOTION_DOT": -0.0205768, "MEAN_MOTION_DDOT": 0}, "tle": {"line1": "1 66621U 25271E   25344.91670139 -.02057680  00000+0 -30334-1 0  9995", "line2": "2 66621  53.1601 195.8889 0001087  85.4843 296.4132 15.57888228  3953"}}, "geometry": {"type": "Point", "coordinates": [40.7485472174533, -30.5579316509003]}}, {"type": "Feature", "properties": {"norad_id": 66622, "name": "STARLINK-35950", "group": "last-30-days", "lat": 6.241121100260463, "lon": 9.873339542237646, "alt_km": 397.5574170552036, "timestamp": "2025-12-11T05:00:25.075956+00:00", "meta": {"OBJECT_NAME": "STARLINK-35950", "OBJECT_ID": "2025-271F", "EPOCH": "2025-12-10T22:00:03.000096", "MEAN_MOTION": 15.57890787, "ECCENTRICITY": 8.32e-05, "INCLINATION": 53.1601, "RA_OF_ASC_NODE": 195.9892, "ARG_OF_PERICENTER": 86.9515, "MEAN_ANOMALY": 247.6678, "EPHEMERIS_TYPE": 0, "CLASSIFICATION_TYPE": "U", "NORAD_CAT_ID": 66622, "ELEMENT_SET_NO": 999, "REV_AT_EPOCH": 395, "BSTAR": -0.030400444, "MEAN_MOTION_DOT": -0.02061753, "MEAN_MOTION_DDOT": 0}, "tle": {"line1": "1 66622U 25271F   25344.91670139 -.02061753  00000+0 -30400-1 0  9996", "line2": "2 66622  53.1601 195.9892 0000832  86.9515 247.6678 15.57890787  3954"}}, "geometry": {"type": "Point", "coordinates": [9.873339542237646, 6.241121100260463]}}, {"type": "Feature", "properties": {"norad_id": 66623, "name": "STARLINK-35920", "group": "last-30-days", "lat": 3.1782967598485157, "lon": 12.181452954220937, "alt_km": 397.9413195586685, "timestamp": "2025-12-11T05:00:25.075966+00:00", "meta": {"OBJECT_NAME": "STARLINK-35920", "OBJECT_ID": "2025-271G", "EPOCH": "2025-12-10T22:00:03.000096", "MEAN_MOTION": 15.57892543, "ECCENTRICITY": 8.522e-05, "INCLINATION": 53.1602, "RA_OF_ASC_NODE": 195.9803, "ARG_OF_PERICENTER": 93.6863, "MEAN_ANOMALY": 244.7667, "EPHEMERIS_TYPE": 0, "CLASSIFICATION_TYPE": "U", "NORAD_CAT_ID": 66623, "ELEMENT_SET_NO": 999, "REV_AT_EPOCH": 395, "BSTAR": -0.030454972, "MEAN_MOTION_DOT": -0.02065189, "MEAN_MOTION_DDOT": 0}, "tle": {"line1": "1 66623U 25271G   25344.91670139 -.02065189  00000+0 -30455-1 0  9994", "line2": "2 66623  53.1602 195.9803 0000852  93.6863 244.7667 15.57892543  3959"}}, "geometry": {"type": "Point", "coordinates": [12.181452954220937, 3.1782967598485157]}}, {"type": "Feature", "properties": {"norad_id": 66624, "name": "STARLINK-35927", "group": "last-30-days", "lat": 4.710350969374651, "lon": 11.03062661553825, "alt_km": 397.78820957182415, "timestamp": "2025-12-11T05:00:25.075982+00:00", "meta": {"OBJECT_NAME": "STARLINK-35927", "OBJECT_ID": "2025-271H", "EPOCH": "2025-12-10T22:00:03.000096", "MEAN_MOTION": 15.57895425, "ECCENTRICITY": 8.682e-05, "INCLINATION": 53.1601, "RA_OF_ASC_NODE": 195.9852, "ARG_OF_PERICENTER": 87.5415, "MEAN_ANOMALY": 248.992, "EPHEMERIS_TYPE": 0, "CLASSIFICATION_TYPE": "U", "NORAD_CAT_ID": 66624, "ELEMENT_SET_NO": 999, "REV_AT_EPOCH": 395, "BSTAR": -0.030485716, "MEAN_MOTION_DOT": -0.02067261, "MEAN_MOTION_DDOT": 0}, "tle": {"line1": "1 66624U 25271H   25344.91670139 -.02067261  00000+0 -30486-1 0  9992", "line2": "2 66624  53.1601 195.9852 0000868  87.5415 248.9920 15.57895425  3955"}}, "geometry": {"type": "Point", "coordinates": [11.03062661553825, 4.710350969374651]}}, {"type": "Feature", "properties": {"norad_id": 66625, "name": "STARLINK-35929", "group": "last-30-days", "lat": 1.6446579059739463, "lon": 13.32995098275678, "alt_km": 398.1556874248636, "timestamp": "2025-12-11T05:00:25.075992+00:00", "meta": {"OBJECT_NAME": "STARLINK-35929", "OBJECT_ID": "2025-271J", "EPOCH": "2025-12-10T22:00:03.000096", "MEAN_MOTION": 15.57894469, "ECCENTRICITY": 8.651e-05, "INCLINATION": 53.1602, "RA_OF_ASC_NODE": 195.9763, "ARG_OF_PERICENTER": 94.9614, "MEAN_ANOMALY": 245.4075, "EPHEMERIS_TYPE": 0, "CLASSIFICATION_TYPE": "U", "NORAD_CAT_ID": 66625, "ELEMENT_SET_NO": 999, "REV_AT_EPOCH": 395, "BSTAR": -0.030488624, "MEAN_MOTION_DOT": -0.02067368, "MEAN_MOTION_DDOT": 0}, "tle": {"line1": "1 66625U 25271J   25344.91670139 -.02067368  00000+0 -30489-1 0  9994", "line2": "2 66625  53.1602 195.9763 0000865  94.9614 245.4075 15.57894469  3958"}}, "geometry": {"type": "Point", "coordinates": [13.32995098275678, 1.6446579059739463]}}, {"type": "Feature", "properties": {"norad_id": 66626, "name": "STARLINK-35902", "group": "last-30-days", "lat": 0.11175031459924745, "lon": 14.47582926528413, "alt_km": 398.4955620188148, "timestamp": "2025-12-11T05:00:25.076004+00:00", "meta": {"OBJECT_NAME": "STARLINK-35902", "OBJECT_ID": "2025-271K", "EPOCH": "2025-12-10T22:00:03.000096", "MEAN_MOTION": 15.57892442, "ECCENTRICITY": 7.983e-05, "INCLINATION": 53.16, "RA_OF_ASC_NODE": 195.9725, "ARG_OF_PERICENTER": 87.8737, "MEAN_ANOMALY": 254.4124, "EPHEMERIS_TYPE": 0, "CLASSIFICATION_TYPE": "U", "NORAD_CAT_ID": 66626, "ELEMENT_SET_NO": 999, "REV_AT_EPOCH": 395, "BSTAR": -0.030442866, "MEAN_MOTION_DOT": -0.02064416, "MEAN_MOTION_DDOT": 0}, "tle": {"line1": "1 66626U 25271K   25344.91670139 -.02064416  00000+0 -30443-1 0  9996", "line2": "2 66626  53.1600 195.9725 0000798  87.8737 254.4124 15.57892442  3951"}}, "geometry": {"type": "Point", "coordinates": [14.47582926528413, 0.11175031459924745]}}, {"type": "Feature", "properties": {"norad_id": 66627, "name": "STARLINK-35904", "group": "last-30-days", "lat": -1.4232049547114294, "lon": 15.622799387436578, "alt_km": 398.8108883433433, "timestamp": "2025-12-11T05:00:25.076014+00:00", "meta": {"OBJECT_NAME": "STARLINK-35904", "OBJECT_ID": "2025-271L", "EPOCH": "2025-12-10T22:00:03.000096", "MEAN_MOTION": 15.57895971, "ECCENTRICITY": 8.724e-05, "INCLINATION": 53.1601, "RA_OF_ASC_NODE": 195.9684, "ARG_OF_PERICENTER": 82.2935, "MEAN_ANOMALY": 261.9082, "EPHEMERIS_TYPE": 0, "CLASSIFICATION_TYPE": "U", "NORAD_CAT_ID": 66627, "ELEMENT_SET_NO": 999, "REV_AT_EPOCH": 379, "BSTAR": -0.030516966, "MEAN_MOTION_DOT": -0.02069193, "MEAN_MOTION_DDOT": 0}, "tle": {"line1": "1 66627U 25271L   25344.91670139 -.02069193  00000+0 -30517-1 0  9996", "line2": "2 66627  53.1601 195.9684 0000872  82.2935 261.9082 15.57895971  3797"}}, "geometry": {"type": "Point", "coordinates": [15.622799387436578, -1.4232049547114294]}}, {"type": "Feature", "properties": {"norad_id": 66628, "name": "STARLINK-35862", "group": "last-30-days", "lat": -2.956907317157121, "lon": 16.7708962408058, "alt_km": 398.87518582468147, "timestamp": "2025-12-11T05:00:25.076024+00:00", "meta": {"OBJECT_NAME": "STARLINK-35862", "OBJECT_ID": "2025-271M", "EPOCH": "2025-12-10T22:00:03.000096", "MEAN_MOTION": 15.57892887, "ECCENTRICITY": 9.275e-05, "INCLINATION": 53.1601, "RA_OF_ASC_NODE": 195.9644, "ARG_OF_PERICENTER": 92.5412, "MEAN_ANOMALY": 253.579, "EPHEMERIS_TYPE": 0, "CLASSIFICATION_TYPE": "U", "NORAD_CAT_ID": 66628, "ELEMENT_SET_NO": 999, "REV_AT_EPOCH": 395, "BSTAR": -0.030451612, "MEAN_MOTION_DOT": -0.02065056, "MEAN_MOTION_DDOT": 0}, "tle": {"line1": "1 66628U 25271M   25344.91670139 -.02065056  00000+0 -30452-1 0  9999", "line2": "2 66628  53.1601 195.9644 0000927  92.5412 253.5790 15.57892887  3953"}}, "geometry": {"type": "Point", "coordinates": [16.7708962408058, -2.956907317157121]}}]}